{"type": "FeatureCollection", "features": [{"type": "Feature", "properties": {"obj_type": "998-Others", "label": "Built-up area near burn perimeter"}, "geometry": {"type": "Polygon", "coordinates": [[[23.93, 37.78], [23.945, 37.782], [23.944, 37.775], [23.928, 37.774], [23.93, 37.78]]]}}, {"type": "Feature", "properties": {"obj_type": "998-Others", "label": "Village settlement"}, "geometry": {"type": "Polygon", "coordinates": [[[23.965, 37.79], [23.978, 37.792], [23.977, 37.786], [23.963, 37.784], [23.965, 37.79]]]}}]}