{"type": "FeatureCollection", "features": [{"type": "Feature", "properties": {"obj_type": "3-Forests and Semi-natural Areas", "label": "Forest / semi-natural land"}, "geometry": {"type": "Polygon", "coordinates": [[[23.9, 37.76], [23.94, 37.77], [23.93, 37.745], [23.89, 37.74], [23.9, 37.76]]]}}, {"type": "Feature", "properties": {"obj_type": "2-Agricultural Areas", "label": "Cropland"}, "geometry": {"type": "Polygon", "coordinates": [[[23.95, 37.78], [23.985, 37.795], [23.99, 37.77], [23.955, 37.76], [23.95, 37.78]]]}}]}